{"type" : "FeatureCollection", "features" : [{"type" : "Feature", "geometry" : {"type":"MultiPolygon","coordinates":[[[[4.237285,51.292918],[4.251656,51.295447],[4.259764,51.300585],[4.261821,51.303131],[4.269036,51.305797],[4.271081,51.305237],[4.276432,51.299954],[4.278486,51.295371],[4.272831,51.292743],[4.270064,51.288284],[4.259862,51.28131],[4.258997,51.2791],[4.254434,51.276131],[4.29141,51.270767],[4.295854,51.263833],[4.294502,51.261124],[4.292676,51.260254],[4.284673,51.259057],[4.274945,51.259021],[4.255339,51.255434],[4.251281,51.255794],[4.243317,51.254739],[4.239763,51.25223],[4.232638,51.251217],[4.22607,51.252671],[4.223259,51.255603],[4.227882,51.262776],[4.232532,51.266258],[4.221243,51.266978],[4.213748,51.264433],[4.208663,51.267959],[4.208405,51.269764],[4.21457,51.277954],[4.23091,51.29023],[4.237285,51.292918]]],[[[4.252773,51.354134],[4.258914,51.356062],[4.267876,51.353514],[4.274776,51.358732],[4.273727,51.360288],[4.274734,51.361846],[4.280438,51.363762],[4.291754,51.364423],[4.296725,51.360569],[4.304724,51.345569],[4.307811,51.337367],[4.307332,51.334952],[4.301499,51.334063],[4.293446,51.336593],[4.281899,51.332605],[4.277814,51.332207],[4.273258,51.333048],[4.271409,51.335071],[4.264065,51.334385],[4.258297,51.335258],[4.246156,51.345751],[4.252773,51.354134]]],[[[4.279689,51.316629],[4.280868,51.311935],[4.279561,51.310493],[4.275999,51.310203],[4.273185,51.311649],[4.27313,51.316999],[4.276053,51.318797],[4.279689,51.316629]]],[[[4.298869,51.298001],[4.291885,51.292291],[4.289685,51.292403],[4.28521,51.294596],[4.283149,51.303203],[4.285887,51.304795],[4.297995,51.300291],[4.298869,51.298001]]],[[[4.298567,51.327953],[4.301329,51.329747],[4.311299,51.328246],[4.33431,51.330637],[4.343573,51.330761],[4.34668,51.328727],[4.347364,51.32646],[4.333655,51.305829],[4.341769,51.29247],[4.362036,51.284179],[4.384001,51.284179],[4.386459,51.283541],[4.387477,51.281001],[4.386034,51.278932],[4.399373,51.263812],[4.407542,51.262179],[4.413187,51.262142],[4.415634,51.26071],[4.422823,51.237309],[4.42269,51.234383],[4.4174,51.230426],[4.41138,51.228572],[4.410021,51.227236],[4.405999,51.226821],[4.402956,51.227633],[4.395941,51.215842],[4.387188,51.207841],[4.384082,51.207298],[4.379693,51.210455],[4.343978,51.249924],[4.34617,51.256624],[4.326622,51.255842],[4.323713,51.256916],[4.297152,51.325223],[4.298567,51.327953]]],[[[4.305807,51.247366],[4.304291,51.248413],[4.304453,51.249823],[4.308655,51.251587],[4.3126,51.251491],[4.313637,51.249297],[4.308061,51.247331],[4.305807,51.247366]]],[[[4.328941,51.18368],[4.326377,51.183246],[4.324349,51.184323],[4.324301,51.186598],[4.332501,51.195875],[4.334812,51.196793],[4.337588,51.195769],[4.336643,51.190311],[4.328941,51.18368]]],[[[4.368851,51.20216],[4.367419,51.20044],[4.351999,51.197203],[4.348355,51.198312],[4.348137,51.201999],[4.349226,51.20341],[4.356789,51.205792],[4.367449,51.20355],[4.368851,51.20216]]],[[[4.523217,51.234627],[4.532033,51.231266],[4.533778,51.228564],[4.531334,51.227215],[4.518097,51.227902],[4.475033,51.235079],[4.462241,51.234754],[4.452687,51.233448],[4.446632,51.231672],[4.434649,51.232415],[4.433235,51.23353],[4.433559,51.23494],[4.442344,51.240599],[4.447506,51.24377],[4.487637,51.242752],[4.505799,51.239726],[4.523217,51.234627]]],[[[4.550873,51.220348],[4.542605,51.224014],[4.542625,51.226004],[4.546001,51.226797],[4.553426,51.223955],[4.554863,51.221956],[4.553547,51.220488],[4.550873,51.220348]]]]}, "properties" : {"locode" : "BEANR", "name" : "Antwerp", "kind" : "port", "ships" : 1279, "ship_hours" : 8643, "anchor_hours" : 17, "blobs" : 10}}, {"type" : "Feature", "geometry" : {"type":"MultiPolygon","coordinates":[[[[3.737856,51.095001],[3.737856,51.082001],[3.736073,51.080335],[3.732343,51.08134],[3.730144,51.090999],[3.732834,51.096171],[3.736512,51.096525],[3.737856,51.095001]]],[[[3.749094,51.09666],[3.750639,51.095688],[3.7508,51.093647],[3.749059,51.092332],[3.746358,51.092529],[3.744582,51.094043],[3.744209,51.095381],[3.745921,51.096663],[3.749094,51.09666]]],[[[3.748853,51.1041],[3.747777,51.102594],[3.742238,51.10021],[3.735636,51.101421],[3.734165,51.102775],[3.741696,51.110062],[3.744014,51.110797],[3.74632,51.11005],[3.748853,51.1041]]],[[[3.761855,51.111081],[3.760626,51.109523],[3.757425,51.10924],[3.755579,51.110045],[3.754142,51.115999],[3.755854,51.117646],[3.759305,51.117063],[3.761855,51.111081]]],[[[3.772665,51.129351],[3.765247,51.12289],[3.762128,51.122289],[3.760427,51.123216],[3.760324,51.12463],[3.767718,51.131082],[3.771623,51.131479],[3.772665,51.129351]]],[[[3.782412,51.169455],[3.78788,51.173359],[3.787489,51.177279],[3.794012,51.181292],[3.802904,51.182796],[3.805267,51.182098],[3.803879,51.168945],[3.800118,51.164121],[3.794192,51.161771],[3.791637,51.156454],[3.792517,51.152722],[3.800455,51.147924],[3.799734,51.143473],[3.792721,51.135566],[3.787087,51.135664],[3.775732,51.144905],[3.771539,51.150962],[3.773974,51.15525],[3.766857,51.158022],[3.764374,51.161287],[3.765578,51.163955],[3.772761,51.16835],[3.782412,51.169455]]],[[[3.807546,51.238764],[3.809864,51.236959],[3.808863,51.209959],[3.804295,51.202398],[3.802077,51.202299],[3.800416,51.203225],[3.798136,51.209999],[3.801157,51.234223],[3.804924,51.238238],[3.807546,51.238764]]]]}, "properties" : {"locode" : "BEGNE", "name" : "Ghent", "kind" : "port", "ships" : 106, "ship_hours" : 813, "anchor_hours" : 0, "blobs" : 7}}, {"type" : "Feature", "geometry" : {"type":"MultiPolygon","coordinates":[[[[8.496009,53.490693],[8.498009,53.489092],[8.495237,53.485796],[8.493154,53.485205],[8.489991,53.486908],[8.492412,53.489921],[8.496009,53.490693]]],[[[8.505405,53.60492],[8.507379,53.605759],[8.510653,53.605504],[8.523127,53.598281],[8.536825,53.583898],[8.551259,53.581842],[8.561108,53.576286],[8.568739,53.566755],[8.570185,53.564289],[8.570161,53.555054],[8.578955,53.547419],[8.586011,53.538109],[8.587678,53.521848],[8.586495,53.518729],[8.588247,53.516299],[8.590008,53.499109],[8.58702,53.495309],[8.584817,53.495347],[8.578868,53.49773],[8.575104,53.502776],[8.556488,53.550219],[8.548029,53.554579],[8.510504,53.595211],[8.506212,53.601309],[8.505405,53.60492]]]]}, "properties" : {"locode" : "DEBRV", "name" : "Bremerhaven", "kind" : "port", "ships" : 181, "ship_hours" : 2130, "anchor_hours" : 0, "blobs" : 2}}, {"type" : "Feature", "geometry" : {"type":"MultiPolygon","coordinates":[[[[9.858012,53.539093],[9.85524,53.535796],[9.853156,53.535205],[9.849988,53.536907],[9.852409,53.53992],[9.855435,53.540778],[9.858012,53.539093]]],[[[9.895736,53.529756],[9.902735,53.520756],[9.902509,53.519004],[9.900499,53.518228],[9.888331,53.517503],[9.882446,53.52239],[9.882086,53.527975],[9.880774,53.529154],[9.875922,53.53195],[9.871576,53.53223],[9.869724,53.533233],[9.866046,53.536638],[9.866867,53.540271],[9.882628,53.540513],[9.895736,53.529756]]],[[[9.963803,53.547793],[9.984524,53.54777],[9.988395,53.546093],[9.989366,53.543866],[9.997395,53.539093],[9.998382,53.535634],[10.001824,53.532115],[10.005753,53.529058],[10.009641,53.527701],[10.010973,53.525701],[10.007237,53.523032],[9.993247,53.522582],[9.977763,53.515747],[9.967421,53.503486],[9.958759,53.499541],[9.954002,53.498985],[9.95009,53.499629],[9.937914,53.497204],[9.934804,53.498761],[9.934621,53.502106],[9.93115,53.509647],[9.92785,53.512312],[9.926986,53.516661],[9.921997,53.52385],[9.901391,53.533099],[9.904367,53.540876],[9.907804,53.542015],[9.912225,53.545737],[9.963803,53.547793]]],[[[9.952213,53.474319],[9.953114,53.478514],[9.957072,53.48071],[9.960832,53.479612],[9.956097,53.473326],[9.952213,53.474319]]],[[[9.985105,53.482328],[9.981905,53.482326],[9.980294,53.483211],[9.973987,53.498],[9.97701,53.499797],[9.983785,53.497686],[9.986991,53.484213],[9.985105,53.482328]]],[[[9.994009,53.471925],[9.991082,53.465702],[9.981017,53.465648],[9.978658,53.468315],[9.982754,53.470872],[9.974494,53.470552],[9.971995,53.472879],[9.974414,53.475921],[9.976382,53.476759],[9.982,53.476797],[9.990244,53.475199],[9.994009,53.471925]]],[[[10.013703,53.532252],[10.010869,53.532728],[10.008048,53.537369],[10.009335,53.538499],[10.012,53.538797],[10.021965,53.536363],[10.02301,53.535112],[10.022234,53.533793],[10.013703,53.532252]]],[[[10.043978,53.542287],[10.043409,53.540919],[10.027359,53.539216],[10.024146,53.540418],[10.025977,53.542691],[10.037545,53.543777],[10.042714,53.543479],[10.043978,53.542287]]],[[[10.059886,53.530402],[10.066248,53.526198],[10.068949,53.521626],[10.061015,53.517916],[10.057466,53.518038],[10.056221,53.516052],[10.047278,53.513255],[10.031814,53.517762],[10.028598,53.525373],[10.026985,53.529973],[10.028835,53.531658],[10.055511,53.531771],[10.059886,53.530402]],[[10.056093,53.519249],[10.052389,53.523145],[10.050541,53.522684],[10.051968,53.521009],[10.056093,53.519249]]],[[[10.095383,53.445241],[10.093416,53.446079],[10.092068,53.448407],[10.093874,53.449667],[10.097,53.449797],[10.099584,53.448921],[10.100931,53.446593],[10.099126,53.445333],[10.095383,53.445241]]]]}, "properties" : {"locode" : "DEHAM", "name" : "Hamburg", "kind" : "port", "ships" : 700, "ship_hours" : 8068, "anchor_hours" : 22, "blobs" : 10}}, {"type" : "Feature", "geometry" : {"type":"MultiPolygon","coordinates":[[[[4.742747,52.424156],[4.755906,52.432796],[4.773133,52.427214],[4.780102,52.426874],[4.785635,52.425493],[4.78996,52.421659],[4.794562,52.414797],[4.799571,52.412683],[4.801935,52.409896],[4.79457,52.401481],[4.789319,52.400214],[4.773784,52.399208],[4.768541,52.40122],[4.767733,52.40372],[4.765062,52.405956],[4.764874,52.408622],[4.766697,52.410909],[4.765895,52.412035],[4.759786,52.410667],[4.757695,52.408707],[4.75475,52.407829],[4.747224,52.410507],[4.738491,52.415064],[4.739118,52.419359],[4.742747,52.424156]]],[[[4.821373,52.44181],[4.825165,52.44265],[4.830772,52.439417],[4.833036,52.436328],[4.846077,52.428366],[4.856436,52.426613],[4.864072,52.419176],[4.889403,52.408657],[4.901185,52.402247],[4.916812,52.397805],[4.939654,52.392964],[4.95534,52.386215],[4.965625,52.38433],[4.978753,52.378442],[4.981172,52.376036],[4.983886,52.369849],[4.992285,52.364247],[4.993505,52.361062],[4.991757,52.35956],[4.988234,52.358853],[4.97531,52.358795],[4.971986,52.357793],[4.943126,52.362019],[4.910321,52.358978],[4.893904,52.349528],[4.888835,52.34289],[4.884655,52.342403],[4.882107,52.344141],[4.877434,52.351359],[4.86922,52.357845],[4.855866,52.3621],[4.85711,52.365355],[4.842604,52.385073],[4.831709,52.388277],[4.815563,52.391015],[4.806454,52.396102],[4.805862,52.398233],[4.808187,52.403396],[4.807226,52.412463],[4.802679,52.416074],[4.802079,52.417793],[4.803473,52.419889],[4.808163,52.421148],[4.81951,52.43437],[4.821373,52.44181]]],[[[4.819096,52.475261],[4.821885,52.471358],[4.823944,52.465008],[4.823093,52.463736],[4.813592,52.46224],[4.811027,52.462667],[4.809056,52.472],[4.809932,52.473279],[4.815385,52.475503],[4.819096,52.475261]]],[[[4.843872,52.329284],[4.840415,52.330149],[4.841233,52.332437],[4.848203,52.335729],[4.851692,52.334716],[4.851348,52.331922],[4.843872,52.329284]]],[[[4.857135,52.244344],[4.852594,52.244976],[4.853294,52.247731],[4.866894,52.252664],[4.870705,52.25169],[4.870086,52.249738],[4.857135,52.244344]]],[[[4.924169,52.32579],[4.920144,52.325609],[4.903772,52.333831],[4.903065,52.336],[4.909409,52.348845],[4.913298,52.349611],[4.925806,52.328525],[4.924169,52.32579]]],[[[5.002923,52.377182],[5.003506,52.370062],[5.001168,52.368351],[4.998001,52.368203],[4.994494,52.370063],[4.995494,52.375938],[4.998248,52.378443],[5.001437,52.378567],[5.002923,52.377182]]],[[[5.027887,52.27031],[5.027012,52.268693],[5.022851,52.268779],[5.018198,52.274474],[5.019147,52.277392],[5.022117,52.278713],[5.025162,52.278213],[5.027887,52.27031]]],[[[5.045751,52.408627],[5.048899,52.408371],[5.049631,52.406198],[5.043971,52.401667],[5.038001,52.401203],[5.035306,52.402282],[5.035846,52.404223],[5.045751,52.408627]]],[[[5.040635,52.466494],[5.041944,52.464999],[5.041432,52.457987],[5.03951,52.45723],[5.037281,52.457542],[5.032488,52.462064],[5.033072,52.465358],[5.037511,52.466772],[5.040635,52.466494]]],[[[5.048604,52.304496],[5.046346,52.304249],[5.04184,52.306784],[5.041152,52.308432],[5.051029,52.314331],[5.054852,52.314393],[5.059576,52.310859],[5.059845,52.309561],[5.048604,52.304496]]],[[[5.063549,52.325438],[5.062158,52.326552],[5.062497,52.327938],[5.06786,52.33323],[5.070999,52.333797],[5.073935,52.332007],[5.071496,52.328055],[5.066367,52.32541],[5.063549,52.325438]]]]}, "properties" : {"locode" : "NLAMS", "name" : "Amsterdam", "kind" : "port", "ships" : 1613, "ship_hours" : 15761, "anchor_hours" : 47, "blobs" : 12}}, {"type" : "Feature", "geometry" : {"type":"MultiPolygon","coordinates":[[[[4.769302,52.963476],[4.782203,52.964792],[4.795723,52.960465],[4.803152,52.957241],[4.803977,52.955999],[4.799929,52.952168],[4.791652,52.951658],[4.793034,52.947856],[4.790357,52.945099],[4.789876,52.942253],[4.787137,52.939749],[4.785028,52.939204],[4.772507,52.94602],[4.770379,52.949334],[4.771279,52.953138],[4.766799,52.955277],[4.765221,52.957357],[4.765222,52.960647],[4.769302,52.963476]]],[[[4.787924,52.927287],[4.790076,52.927796],[4.792183,52.92722],[4.795938,52.921278],[4.79507,52.919709],[4.790946,52.919701],[4.78729,52.924259],[4.787924,52.927287]]],[[[4.856568,53.044763],[4.858725,53.043729],[4.858555,53.042072],[4.852525,53.037456],[4.848344,53.037506],[4.847017,53.040001],[4.851806,53.044647],[4.856568,53.044763]]]]}, "properties" : {"locode" : "NLDHR", "name" : "Den Helder", "kind" : "port", "ships" : 145, "ship_hours" : 2111, "anchor_hours" : 4, "blobs" : 3}}, {"type" : "Feature", "geometry" : {"type":"MultiPolygon","coordinates":[[[[6.769694,53.27921],[6.764997,53.277305],[6.761819,53.277349],[6.760189,53.278375],[6.760306,53.27979],[6.764541,53.28157],[6.768712,53.281475],[6.769694,53.27921]]],[[[6.854955,53.445704],[6.858584,53.442921],[6.858854,53.441429],[6.856815,53.439566],[6.854064,53.439292],[6.849723,53.440825],[6.846416,53.444079],[6.846323,53.445823],[6.848153,53.446725],[6.854955,53.445704]]],[[[6.856807,53.315565],[6.853532,53.315433],[6.852012,53.31683],[6.853329,53.31982],[6.857999,53.320797],[6.860457,53.320031],[6.860575,53.318076],[6.856807,53.315565]]],[[[6.899469,53.314966],[6.90879,53.320702],[6.913794,53.322353],[6.916297,53.325338],[6.923747,53.328999],[6.931834,53.334656],[6.936766,53.334453],[6.943047,53.33022],[6.944265,53.327512],[6.949777,53.325788],[6.952831,53.323597],[6.952007,53.321664],[6.949119,53.320156],[6.945405,53.319635],[6.942146,53.316354],[6.933952,53.312296],[6.928294,53.311212],[6.911295,53.310212],[6.905077,53.310999],[6.899647,53.312886],[6.899469,53.314966]]],[[[6.99515,53.37166],[6.996947,53.37035],[6.996776,53.364312],[6.993414,53.363238],[6.990996,53.365004],[6.991224,53.370688],[6.99515,53.37166]]]]}, "properties" : {"locode" : "NLDZL", "name" : "Delfzijl", "kind" : "port", "ships" : 199, "ship_hours" : 1753, "anchor_hours" : 0, "blobs" : 5}}, {"type" : "Feature", "geometry" : {"type":"MultiPolygon","coordinates":[[[[5.343833,53.073566],[5.341761,53.067318],[5.337767,53.064263],[5.334674,53.064875],[5.327131,53.073505],[5.330442,53.077927],[5.334435,53.078575],[5.343833,53.073566]]],[[[5.405912,53.05439],[5.405685,53.052216],[5.399931,53.048293],[5.396786,53.048797],[5.392208,53.053368],[5.39246,53.054943],[5.395785,53.057205],[5.400012,53.05769],[5.405912,53.05439]]],[[[5.423689,53.187555],[5.424775,53.19041],[5.42972,53.194165],[5.434006,53.195695],[5.438544,53.195767],[5.440373,53.195094],[5.443148,53.191622],[5.439023,53.187389],[5.438745,53.183634],[5.445939,53.179938],[5.453512,53.179408],[5.457979,53.173833],[5.45548,53.172226],[5.411485,53.16823],[5.407729,53.169831],[5.406057,53.171679],[5.406092,53.174424],[5.40958,53.17844],[5.415707,53.184274],[5.423689,53.187555]]],[[[5.505906,53.182673],[5.543473,53.186769],[5.565543,53.184767],[5.567948,53.183307],[5.567403,53.181928],[5.565363,53.181216],[5.524364,53.178217],[5.50671,53.179212],[5.504037,53.180753],[5.505906,53.182673]]]]}, "properties" : {"locode" : "NLHAR", "name" : "Harlingen", "kind" : "port", "ships" : 297, "ship_hours" : 4007, "anchor_hours" : 21, "blobs" : 4}}, {"type" : "Feature", "geometry" : {"type":"Polygon","coordinates":[[[3.939077,52.432773],[3.951782,52.442181],[3.956336,52.44375],[4.005801,52.450724],[4.019711,52.449298],[4.032866,52.45453],[4.058707,52.458158],[4.067968,52.458496],[4.072413,52.46008],[4.142351,52.469752],[4.144995,52.469321],[4.161861,52.459422],[4.159385,52.456415],[4.135665,52.451755],[4.128202,52.454332],[4.113963,52.453437],[4.109411,52.452214],[4.103845,52.452581],[4.086867,52.450938],[4.072118,52.441731],[4.05754,52.439826],[4.049896,52.440549],[4.033605,52.439255],[4.027694,52.43043],[3.996453,52.424225],[3.949137,52.420283],[3.931319,52.424261],[3.931473,52.427921],[3.939077,52.432773]]]}, "properties" : {"locode" : "NLIJM", "name" : "IJmuiden", "kind" : "anchorage", "ships" : 66, "ship_hours" : 191, "anchor_hours" : 150, "blobs" : 1}}, {"type" : "Feature", "geometry" : {"type":"MultiPolygon","coordinates":[[[[4.57409,52.46603],[4.573831,52.468573],[4.579134,52.47139],[4.586223,52.473733],[4.599328,52.475749],[4.60467,52.475749],[4.633302,52.471611],[4.644927,52.465191],[4.642917,52.463293],[4.625046,52.460193],[4.61047,52.461186],[4.596434,52.456223],[4.584632,52.455218],[4.580668,52.455565],[4.577568,52.457125],[4.571241,52.456296],[4.561085,52.457029],[4.556691,52.457886],[4.55673,52.460144],[4.57409,52.46603]]],[[[4.643429,52.382763],[4.646044,52.382291],[4.646899,52.380708],[4.645144,52.378771],[4.640001,52.378203],[4.637284,52.379316],[4.63793,52.381275],[4.643429,52.382763]]],[[[4.663336,52.402909],[4.651447,52.394224],[4.649308,52.394531],[4.648061,52.396],[4.650278,52.401678],[4.659985,52.405686],[4.663773,52.404596],[4.663336,52.402909]]],[[[4.656769,52.474592],[4.658588,52.479031],[4.662223,52.479634],[4.669646,52.471788],[4.670744,52.466349],[4.666177,52.463353],[4.655421,52.462239],[4.653057,52.464029],[4.65469,52.468769],[4.656444,52.470048],[4.660082,52.469923],[4.656769,52.474592]]],[[[4.679472,52.418918],[4.682352,52.419784],[4.684596,52.418843],[4.686932,52.413861],[4.685073,52.412327],[4.681001,52.412203],[4.678597,52.412965],[4.678093,52.414272],[4.679472,52.418918]]],[[[4.6819,52.402629],[4.676731,52.401211],[4.674074,52.403174],[4.677138,52.405391],[4.681162,52.40565],[4.682935,52.403901],[4.6819,52.402629]]],[[[4.744212,52.430637],[4.747904,52.424715],[4.74209,52.417331],[4.739788,52.417363],[4.738229,52.418399],[4.738435,52.422813],[4.739337,52.429763],[4.740915,52.43067],[4.744212,52.430637]]],[[[4.788352,52.492788],[4.793483,52.49854],[4.797471,52.497978],[4.797946,52.493999],[4.792395,52.490417],[4.788436,52.491116],[4.788352,52.492788]]]]}, "properties" : {"locode" : "NLIJM", "name" : "IJmuiden", "kind" : "port", "ships" : 286, "ship_hours" : 3017, "anchor_hours" : 0, "blobs" : 8}}, {"type" : "Feature", "geometry" : {"type":"Polygon","coordinates":[[[3.703514,51.940754],[3.704111,51.95322],[3.706442,51.954763],[3.803659,51.95375],[3.805791,51.952509],[3.816809,51.928533],[3.810116,51.925341],[3.794291,51.923213],[3.710412,51.918241],[3.70714,51.920673],[3.704139,51.930673],[3.703514,51.940754]]]}, "properties" : {"locode" : "NLRTM", "name" : "Rotterdam", "kind" : "anchorage", "ships" : 54, "ship_hours" : 157, "anchor_hours" : 113, "blobs" : 1}}, {"type" : "Feature", "geometry" : {"type":"MultiPolygon","coordinates":[[[[4.056012,51.971862],[4.058854,51.965486],[4.065421,51.962829],[4.073927,51.962513],[4.079867,51.959131],[4.080862,51.957571],[4.087796,51.95504],[4.096029,51.950288],[4.09691,51.948996],[4.0954,51.944984],[4.090073,51.942231],[4.084815,51.943559],[4.077505,51.942613],[4.076709,51.942088],[4.07843,51.940783],[4.081463,51.940378],[4.083355,51.938704],[4.082845,51.937445],[4.078945,51.935301],[4.071173,51.934403],[4.0643,51.932432],[4.059621,51.932365],[4.054721,51.930189],[4.045946,51.928301],[4.037362,51.928515],[4.027103,51.944828],[4.029475,51.956635],[4.024551,51.961544],[4.022101,51.976828],[4.022749,51.97814],[4.025278,51.978788],[4.053918,51.973352],[4.056012,51.971862]]],[[[4.097682,51.827688],[4.097845,51.825645],[4.096067,51.824329],[4.093317,51.824536],[4.091532,51.826054],[4.09134,51.827719],[4.092906,51.828664],[4.096111,51.82866],[4.097682,51.827688]]],[[[4.129473,51.828767],[4.132127,51.828223],[4.138457,51.823956],[4.138902,51.821],[4.13711,51.81934],[4.132,51.819203],[4.118846,51.821796],[4.118147,51.82433],[4.119907,51.826244],[4.129473,51.828767]]],[[[4.138636,51.964753],[4.156914,51.955354],[4.157809,51.95353],[4.150594,51.947497],[4.129086,51.942294],[4.116865,51.948779],[4.103817,51.957812],[4.103947,51.961493],[4.106345,51.967737],[4.108504,51.96877],[4.138636,51.964753]]],[[[4.123148,51.973614],[4.12112,51.976732],[4.121328,51.978715],[4.123022,51.979692],[4.125335,51.979597],[4.131757,51.976184],[4.139611,51.971795],[4.138333,51.969403],[4.135616,51.969419],[4.123148,51.973614]]],[[[4.165154,51.932649],[4.174475,51.926944],[4.174408,51.922992],[4.170827,51.922356],[4.150098,51.931326],[4.146144,51.933658],[4.146315,51.935692],[4.148462,51.936766],[4.165154,51.932649]]],[[[4.159445,51.946519],[4.171068,51.947796],[4.177582,51.945508],[4.219195,51.924179],[4.223811,51.91546],[4.223359,51.912949],[4.220724,51.912211],[4.202484,51.913467],[4.19669,51.917768],[4.189403,51.921358],[4.190422,51.925877],[4.181362,51.930669],[4.177323,51.934113],[4.168357,51.934926],[4.16167,51.938082],[4.158148,51.940645],[4.158149,51.945359],[4.159445,51.946519]]],[[[4.193445,51.771443],[4.186792,51.770208],[4.184136,51.771723],[4.18548,51.77353],[4.192594,51.775758],[4.194682,51.774683],[4.194835,51.772626],[4.193445,51.771443]]],[[[4.221664,51.901596],[4.247426,51.896566],[4.25279,51.893504],[4.252106,51.882798],[4.254402,51.88142],[4.254496,51.87708],[4.252596,51.876242],[4.248547,51.876225],[4.238383,51.878507],[4.228131,51.884973],[4.228221,51.88713],[4.222882,51.888243],[4.218528,51.891055],[4.215095,51.89507],[4.218708,51.900105],[4.221664,51.901596]]],[[[4.253783,51.91348],[4.251715,51.912258],[4.24942,51.912492],[4.243187,51.915545],[4.247221,51.92453],[4.249092,51.925707],[4.251728,51.925445],[4.254779,51.92153],[4.253783,51.91348]]],[[[4.279808,51.904639],[4.283228,51.905052],[4.323409,51.902182],[4.347338,51.899049],[4.340501,51.907651],[4.341494,51.912428],[4.343628,51.91365],[4.394817,51.919793],[4.430358,51.921169],[4.421959,51.92472],[4.41236,51.937245],[4.413398,51.9395],[4.417164,51.939201],[4.442532,51.921638],[4.499,51.923797],[4.506758,51.922735],[4.50874,51.921602],[4.507132,51.905778],[4.497453,51.900402],[4.496741,51.898852],[4.489517,51.894567],[4.460947,51.8883],[4.459022,51.882858],[4.455503,51.879392],[4.452756,51.878265],[4.326,51.865203],[4.294424,51.865239],[4.292039,51.866142],[4.291748,51.867802],[4.297973,51.870805],[4.270871,51.871344],[4.261528,51.880055],[4.261159,51.883377],[4.269527,51.894944],[4.279808,51.904639]]],[[[4.374898,51.991182],[4.37336,51.989411],[4.369721,51.989881],[4.364409,51.996179],[4.365216,51.999529],[4.367715,52.000788],[4.370564,51.999853],[4.374898,51.991182]]]]}, "properties" : {"locode" : "NLRTM", "name" : "Rotterdam", "kind" : "port", "ships" : 2480, "ship_hours" : 21052, "anchor_hours" : 37, "blobs" : 13}}, {"type" : "Feature", "geometry" : {"type":"MultiPolygon","coordinates":[[[[3.757691,51.405634],[3.75579,51.399565],[3.754063,51.398331],[3.750423,51.39824],[3.748309,51.399366],[3.75021,51.405435],[3.753001,51.406797],[3.75613,51.406652],[3.757691,51.405634]]],[[[3.770857,51.347187],[3.771221,51.339862],[3.766695,51.338257],[3.755469,51.33848],[3.754147,51.340207],[3.757259,51.346536],[3.76087,51.349651],[3.768639,51.349476],[3.770857,51.347187]]],[[[3.769056,51.379329],[3.765976,51.379724],[3.765903,51.382229],[3.769346,51.384469],[3.773001,51.384797],[3.775666,51.383672],[3.774994,51.381707],[3.769056,51.379329]]],[[[3.785723,51.394788],[3.797405,51.392568],[3.79887,51.391104],[3.798114,51.389783],[3.79607,51.389204],[3.786496,51.390231],[3.783158,51.392727],[3.783731,51.394103],[3.785723,51.394788]]],[[[3.835218,51.282436],[3.836941,51.283669],[3.839695,51.283743],[3.844487,51.281896],[3.849708,51.272591],[3.849717,51.270426],[3.847017,51.267629],[3.84196,51.26849],[3.841147,51.266614],[3.84467,51.261179],[3.841714,51.25656],[3.838972,51.256323],[3.833974,51.259012],[3.828457,51.260485],[3.827219,51.262436],[3.835218,51.282436]]],[[[3.827001,51.342797],[3.829355,51.342029],[3.830498,51.339321],[3.830431,51.332958],[3.828786,51.330553],[3.829399,51.327759],[3.839185,51.315753],[3.844797,51.300401],[3.843289,51.298395],[3.840665,51.298409],[3.83142,51.303213],[3.805401,51.337236],[3.80628,51.339438],[3.817364,51.342752],[3.827001,51.342797]]],[[[3.946568,51.370495],[3.937001,51.368203],[3.93413,51.369905],[3.937206,51.372403],[3.945001,51.373797],[3.947874,51.371987],[3.946568,51.370495]]]]}, "properties" : {"locode" : "NLTNZ", "name" : "Terneuzen", "kind" : "port", "ships" : 344, "ship_hours" : 2314, "anchor_hours" : 23, "blobs" : 7}}, {"type" : "Feature", "geometry" : {"type":"Polygon","coordinates":[[[3.307142,51.792691],[3.318477,51.805887],[3.325089,51.811352],[3.360594,51.823572],[3.371843,51.825794],[3.401845,51.826794],[3.404448,51.825965],[3.410875,51.815245],[3.406278,51.805888],[3.374727,51.781557],[3.337727,51.764557],[3.320671,51.759252],[3.317872,51.759345],[3.316144,51.760692],[3.307142,51.792691]]]}, "properties" : {"locode" : "NLVLI", "name" : "Vlissingen", "kind" : "anchorage", "ships" : 78, "ship_hours" : 245, "anchor_hours" : 195, "blobs" : 1}}, {"type" : "Feature", "geometry" : {"type":"MultiPolygon","coordinates":[[[[3.571638,51.398715],[3.571438,51.397048],[3.567247,51.393382],[3.564646,51.393415],[3.560431,51.395192],[3.560303,51.396622],[3.562562,51.398952],[3.564422,51.39976],[3.569001,51.399797],[3.571638,51.398715]]],[[[3.576102,51.44266],[3.577659,51.441688],[3.577821,51.439646],[3.576063,51.438331],[3.573339,51.438533],[3.571558,51.440048],[3.57136,51.441715],[3.572914,51.442664],[3.576102,51.44266]]],[[[3.589942,51.457796],[3.60237,51.45102],[3.602878,51.441],[3.601599,51.439506],[3.596801,51.439366],[3.586849,51.442806],[3.582121,51.447999],[3.583781,51.450588],[3.587118,51.450957],[3.585653,51.4539],[3.587574,51.456967],[3.589942,51.457796]]],[[[3.619532,51.495234],[3.617382,51.495513],[3.616175,51.497354],[3.618605,51.500999],[3.624001,51.501797],[3.626874,51.50013],[3.625281,51.496903],[3.619532,51.495234]]],[[[3.651665,51.383328],[3.648999,51.382203],[3.636586,51.383222],[3.622504,51.386108],[3.623599,51.388569],[3.630065,51.38917],[3.639964,51.389693],[3.650996,51.385293],[3.651665,51.383328]]],[[[3.670698,51.462078],[3.673972,51.463849],[3.681672,51.465077],[3.687245,51.464975],[3.692823,51.467111],[3.698801,51.473377],[3.69683,51.476865],[3.701199,51.479402],[3.706103,51.47966],[3.712063,51.476414],[3.719431,51.473964],[3.721628,51.470312],[3.722545,51.464578],[3.727074,51.461226],[3.728879,51.458],[3.727613,51.453149],[3.724897,51.451085],[3.723912,51.447956],[3.725281,51.44661],[3.724671,51.444331],[3.720799,51.441598],[3.700541,51.441451],[3.697159,51.443479],[3.698961,51.446665],[3.697033,51.449731],[3.687291,51.453865],[3.675422,51.451028],[3.670542,51.452451],[3.669132,51.454159],[3.670698,51.462078]]],[[[3.66966,51.540306],[3.666509,51.53923],[3.66412,51.540901],[3.666142,51.550246],[3.667337,51.551468],[3.670001,51.551797],[3.672048,51.551266],[3.672825,51.549635],[3.66966,51.540306]]]]}, "properties" : {"locode" : "NLVLI", "name" : "Vlissingen", "kind" : "port", "ships" : 363, "ship_hours" : 3382, "anchor_hours" : 0, "blobs" : 7}}]}
